{
    "links": {
        "self": "http://www.neowsapp.com/rest/v1/neo/3698553?api_key=iIulBulltgU6a56xZRHN4H3l9WmuAYTsLGpBGhQ2"
    },
    "id": "3698553",
    "neo_reference_id": "3698553",
    "name": "(2014 HB199)",
    "designation": "2014 HB199",
    "nasa_jpl_url": "http://ssd.jpl.nasa.gov/sbdb.cgi?sstr=3698553",
    "absolute_magnitude_h": 24.9,
    "estimated_diameter": {
        "kilometers": {
            "estimated_diameter_min": 0.0278326768,
            "estimated_diameter_max": 0.0622357573
        },
        "meters": {
            "estimated_diameter_min": 27.8326768072,
            "estimated_diameter_max": 62.2357573367
        },
        "miles": {
            "estimated_diameter_min": 0.0172944182,
            "estimated_diameter_max": 0.0386714948
        },
        "feet": {
            "estimated_diameter_min": 91.3145593761,
            "estimated_diameter_max": 204.1855621004
        }
    },
    "is_potentially_hazardous_asteroid": false,
    "close_approach_data": [
        {
            "close_approach_date": "2014-05-21",
            "close_approach_date_full": "2014-May-21 04:49",
            "epoch_date_close_approach": 1400647740000,
            "relative_velocity": {
                "kilometers_per_second": "14.1993808995",
                "kilometers_per_hour": "51117.7712380207",
                "miles_per_hour": "31762.5951339802"
            },
            "miss_distance": {
                "astronomical": "0.0478823841",
                "lunar": "18.6262474149",
                "kilometers": "7163102.671881867",
                "miles": "4450945.6072170846"
            },
            "orbiting_body": "Earth"
        }
    ],
    "orbital_data": {
        "orbit_id": "3",
        "orbit_determination_date": "2017-04-06 08:40:45",
        "first_observation_date": "2014-04-28",
        "last_observation_date": "2014-05-05",
        "data_arc_in_days": 7,
        "observations_used": 46,
        "orbit_uncertainty": "9",
        "minimum_orbit_intersection": ".0475805",
        "jupiter_tisserand_invariant": "3.999",
        "epoch_osculation": "2456778.5",
        "eccentricity": ".4946436147379135",
        "semi_major_axis": "1.717737625593679",
        "inclination": "13.88660924177541",
        "ascending_node_longitude": "231.1149703781633",
        "orbital_period": "822.3063988753257",
        "perihelion_distance": ".8680696772987009",
        "perihelion_argument": "69.00011165472149",
        "aphelion_distance": "2.567405573888657",
        "perihelion_time": "2456844.128554214914",
        "mean_anomaly": "331.2682771900074",
        "mean_motion": ".437793017897434",
        "equinox": "J2000",
        "orbit_class": {
            "orbit_class_type": "APO",
            "orbit_class_description": "Near-Earth asteroid orbits which cross the Earth’s orbit similar to that of 1862 Apollo",
            "orbit_class_range": "a (semi-major axis) > 1.0 AU; q (perihelion) < 1.017 AU"
        }
    },
    "is_sentry_object": false
}